C/2018 A3 (ATLAS),e,139.6016,194.3506,86.4974,344.8995,0.0001539,0.99045403,0.0000,01/08.7330/2019,2000,g  8.5,4.0
# From MPC109147
P/2018 A5 (PANSTARRS),e,23.6243,87.7837,359.5475,5.624424,0.0738902,0.52449163,202.7510,04/04.0/2025,2000,g 15.0,4.0
# From MPEC 2024-JU4
C/2018 A6 (Gibbs),e,77.1529,340.4516,264.2747,14.99832,0.0169684,0.79882497,35.5442,04/04.0/2025,2000,g  9.0,4.0
# From MPC114601
P/2018 C1 (Lemmon-Read),e,5.1021,270.2086,235.7895,5.649585,0.0733972,0.53263562,190.5225,04/04.0/2025,2000,g 13.5,4.0
# From MPEC 2022-M88
C/2018 DO4 (Lemmon),e,160.4464,251.3919,176.4110,25.51340,0.0076481,0.90509701,15.7318,04/04.0/2025,2000,g 11.0,4.0
# From MPEC 2021-R75
C/2018 F1 (Grauer),e,46.1657,177.3168,71.4387,217.8434,0.0003065,0.98626473,0.0000,12/10.1555/2018,2000,g 11.5,4.0
# From MPEC 2023-A50
C/2018 F4 (PANSTARRS),e,78.1295,26.5345,263.1979,1798,0.0000129,0.99808217,0.0000,11/30.9781/2019,2000,g 11.0,6.0
# From MPEC 2021-Y10
C/2018 F4-A,e,78.1296,26.5347,263.1947,1750,0.0000135,0.99802922,0.0000,11/30.9662/2019,2000,g 11.0,6.0
# From MPEC 2023-D41
C/2018 F4-B,e,78.1306,26.5342,263.1805,1832,0.0000126,0.99811798,0.0000,11/30.9030/2019,2000,g 11.0,6.0
# From MPC114602
P/2018 H2 (PANSTARRS),e,7.4182,67.9830,119.2313,4.407133,0.1065295,0.53992825,284.0105,04/04.0/2025,2000,g 16.6,2.0
# From MPEC 2021-R75
C/2018 KJ3 (Lemmon),e,136.6209,91.6950,217.5416,709.7607,0.0000521,0.99490296,0.0000,09/08.9075/2019,2000,g 12.2,2.0
# From MPC114602
P/2018 L1 (PANSTARRS),e,10.5785,268.5846,17.9523,3.657855,0.1408849,0.48129261,329.5913,04/04.0/2025,2000,g 15.0,4.0
# From MPEC 2021-P47
C/2018 L2 (ATLAS),e,67.2106,242.9872,56.3471,236.9635,0.0002702,0.99273537,0.0000,11/29.6905/2018,2000,g 10.0,4.0
# From MPC114603
P/2018 L4 (PANSTARRS),e,26.5923,145.2237,140.5101,4.948591,0.0895327,0.65823431,218.8154,04/04.0/2025,2000,g 17.5,4.0
# From MPEC 2022-YN2
C/2018 N2 (ASASSN),h,11/12.0800/2019,77.5047,24.5222,25.3200,1.001990,3.135142,2000,6.0,4.0
# From MPC114603
P/2018 P4 (PANSTARRS),e,23.0806,353.1574,8.5167,6.695438,0.0568899,0.44914902,133.1040,04/04.0/2025,2000,g 12.0,4.0
# From MPEC 2021-P47
C/2018 P5 (PANSTARRS),e,7.2464,216.2670,132.0393,12.84639,0.0214059,0.64169718,47.7138,04/04.0/2025,2000,g 11.0,4.0
# From MPC118841
C/2018 R3 (Lemmon),e,69.6897,324.3777,112.7934,1776,0.0000132,0.99927701,0.0000,06/08.0508/2019,2000,g  9.5,4.0
# From MPC114603
C/2018 R5 (Lemmon),e,103.6890,171.2613,178.2734,22.98195,0.0089459,0.84169464,20.3540,04/04.0/2025,2000,g 11.5,4.0
# From MPEC 2022-QC6
C/2018 S2 (TESS),e,64.1104,85.1072,290.9432,14.37020,0.0180930,0.61796336,42.3631,04/04.0/2025,2000,g  7.5,4.0
# From MPEC 2024-JU4
C/2018 U1 (Lemmon),h,11/02.2377/2021,108.3257,75.5152,180.3637,1.000264,4.986581,2000,5.0,4.0
# From MPC114604
C/2018 V1 (Machholz-Fujikawa-Iwamoto),h,12/03.9937/2018,144.1972,129.5813,89.5618,1.000457,0.391002,2000,12.0,4.0
# From MPC115884
C/2018 V2 (ATLAS),e,159.1622,357.2106,319.2764,25.24165,0.0077719,0.90125480,18.0369,04/04.0/2025,2000,g 15.0,4.0
# From MPEC 2025-A40
P/2018 VN2 (Leonard),e,18.2576,226.4391,138.9262,4.061225,0.1204255,0.47818521,299.9405,04/04.0/2025,2000,g 15.0,4.0
# From MPEC 2025-A40
A/2018 V3,e,164.9157,308.8154,3.5820,127.5054,0.0006846,0.98956373,0.0000,09/10.4524/2019,2000,g 15.7,2.0
# From MPEC 2022-M21
C/2018 V4 (Africano),e,69.0440,78.2450,0.0875,215.3102,0.0003120,0.98512443,0.0000,03/02.3829/2019,2000,g 12.5,4.0
# From MPEC 2021-P47
P/2018 V5 (Trujillo-Sheppard),e,10.5785,171.2963,260.8691,8.980073,0.0366256,0.47583251,86.8701,04/04.0/2025,2000,g 12.5,4.0
# From MPEC 2021-P47
C/2018 W1 (Catalina),e,83.4034,233.6392,251.1692,21.73873,0.0097242,0.93781028,20.9287,04/04.0/2025,2000,g 15.5,2.0
# From MPEC 2021-P47
C/2018 W2 (Africano),h,09/05.6610/2019,116.5460,181.9663,158.2323,1.000935,1.465596,2000,9.5,4.0
# From MPEC 2023-M14
A/2018 W3,e,104.8391,251.6897,313.8745,704.9597,0.0000527,0.99392475,0.0000,04/13.1579/2021,2000,g 10.7,2.0
# From MPC119996
C/2018 X2 (Fitzsimmons),e,23.1047,340.6473,161.9963,140.5850,0.0005913,0.98498244,0.0000,07/09.7040/2019,2000,g 12.0,4.0
# From MPC114604
C/2018 X3 (PANSTARRS),e,43.4270,78.7956,359.8577,12.40975,0.0225455,0.78292105,51.5027,04/04.0/2025,2000,g 14.5,4.0
# From MPEC 2024-A43
C/2018 Y1 (Iwamoto),e,160.4779,147.3450,357.8640,126.3408,0.0006940,0.98977043,0.0000,02/03.5135/2019,2000,g 11.5,4.0
# From MPC114605
P/2018 Y2 (Africano),e,11.6948,297.1198,162.3755,7.456799,0.0484033,0.48002609,110.4335,04/04.0/2025,2000,g 11.5,4.0
# From MPC114605
P/2019 A1 (PANSTARRS),e,13.7709,312.2124,150.7797,5.112579,0.0852597,0.57027818,201.5161,04/04.0/2025,2000,g 16.0,4.0
# From MPEC 2021-P47
P/2019 A2 (ATLAS),e,14.8726,139.3699,323.9465,5.710479,0.0722263,0.38326625,167.7806,04/04.0/2025,2000,g 10.5,4.0
# From MPEC 2022-M21
P/2019 A3 (PANSTARRS),e,15.3580,31.2996,325.6863,3.146938,0.1765517,0.26732118,70.1227,04/04.0/2025,2000,g 16.0,4.0
# From MPEC 2022-L66
P/2019 A4 (PANSTARRS),e,13.3057,119.3538,343.2218,2.614546,0.2331362,0.08741008,177.5065,04/04.0/2025,2000,g 15.0,4.0
# From MPEC 2021-P47
C/2019 A5 (PANSTARRS),e,67.5504,146.5197,355.8148,21.49914,0.0098872,0.70640585,21.0408,04/04.0/2025,2000,g  9.5,4.0
# From MPC114605
P/2019 A6 (Lemmon-PANSTARRS),e,33.2974,280.1742,156.2463,5.356772,0.0794967,0.64038743,191.2790,04/04.0/2025,2000,g 16.0,4.0
# From MPC182878
P/2019 A8 (PANSTARRS),e,2.2968,111.4263,46.8217,3.421198,0.1557531,0.37454139,359.8997,04/04.0/2025,2000,g 16.0,4.0
# From MPC118842
C/2019 A9 (PANSTARRS),e,84.3962,278.4691,237.8819,39.29055,0.0040020,0.96368128,8.3158,04/04.0/2025,2000,g 15.0,4.0
# From MPEC 2022-L66
C/2019 B1 (Africano),e,123.4881,290.2377,174.8182,139.4234,0.0005987,0.98850337,0.0000,03/18.2727/2019,2000,g 16.0,4.0
# From MPC115885
P/2019 B2 (Groeller),e,16.9540,175.6666,0.6257,3.927339,0.1266358,0.35775020,272.4374,04/04.0/2025,2000,g 14.5,4.0
# From MPEC 2024-JU4
C/2019 B3 (PANSTARRS),e,66.5974,358.4041,263.9932,3816,0.0000042,0.99821047,0.0000,01/19.6365/2021,2000,g  5.5,4.0
# From MPEC 2021-P47
C/2019 C1 (ATLAS),e,36.0403,212.3737,319.0130,681.6147,0.0000554,0.99036468,0.0000,05/04.4546/2020,2000,g 10.0,4.0
# From MPEC 2022-O08
C/2019 D1 (Flewelling),e,34.0067,231.6608,70.7238,136.9948,0.0006147,0.98837868,0.0000,05/08.9864/2019,2000,g 13.0,4.0
# From MPC182878
C/2019 E3 (ATLAS),e,84.3125,347.1992,280.7171,5267,0.0000026,0.99804194,0.0000,11/15.5875/2023,2000,g  2.5,4.0
# From MPEC 2024-GJ3
C/2019 F1 (ATLAS-Africano),h,06/21.2782/2021,54.2479,38.6638,251.3108,1.000425,3.608560,2000,5.5,4.0
# From MPEC 2025-A40
C/2019 F2 (ATLAS),e,19.3306,175.3523,11.6126,16.55793,0.0146283,0.86473140,29.7737,04/04.0/2025,2000,g 12.0,4.0
# From MPEC 2024-E01
C/2019 G2 (PANSTARRS),e,159.2488,208.2273,82.7631,400.9938,0.0001227,0.99425226,0.0000,12/06.5925/2019,2000,g 15.0,4.0
# From MPEC 2022-VC5
A/2019 G3,e,156.8073,49.8986,161.7437,17.12181,0.0139117,0.83431723,32.1793,04/04.0/2025,2000,g 17.1,2.0
# From MPC114607
P/2019 GG21 (PANSTARRS),e,6.0840,340.5648,208.5885,7.468528,0.0482894,0.47167580,104.1275,04/04.0/2025,2000,g 12.0,4.0
# From MPEC 2022-M21
C/2019 H1 (NEOWISE),e,104.3575,269.3120,19.2493,229.5043,0.0002835,0.99198180,0.0000,04/27.0191/2019,2000,g 15.5,4.0
# From MPEC 2023-A50
C/2019 J1 (Lemmon),e,24.5226,98.2348,167.5825,66.59628,0.0018135,0.96272237,3.9717,04/04.0/2025,2000,g 12.0,4.0
# From MPEC 2021-R75
C/2019 J2 (Palomar),e,105.2204,25.4774,98.5602,160.3016,0.0004856,0.98930278,0.0000,07/21.1129/2019,2000,g 13.0,4.0
# From MPC117071
C/2019 J3 (ATLAS),e,131.2942,270.6552,16.5012,67314,0.0000001,0.99996491,0.0000,08/02.0510/2019,2000,g 13.5,4.0
# From MPEC 2022-M21
C/2019 JU6 (ATLAS),e,148.3040,21.6990,94.7942,20619,0.0000003,0.99990142,0.0000,06/02.8958/2019,2000,g 14.5,4.0
# From MPEC 2022-O08
C/2019 K1 (ATLAS),e,87.0154,73.3090,265.7765,3101,0.0000057,0.99934828,0.0000,02/11.0749/2020,2000,g 10.0,4.0
# From MPC119997
C/2019 K4 (Ye),e,105.2895,180.2822,140.0166,1621,0.0000151,0.99859584,0.0000,06/15.2741/2019,2000,g 12.5,4.0
# From MPEC 2021-P47
C/2019 K5 (Young),e,15.2952,177.2664,175.1470,168.7390,0.0004497,0.98782598,0.0000,06/21.5250/2019,2000,g 13.0,4.0
# From MPEC 2021-P47
C/2019 K6 (PANSTARRS),e,132.3871,42.9842,187.4417,956.3707,0.0000333,0.99590377,0.0000,05/18.7187/2020,2000,g 11.5,4.0
# From MPEC 2024-GJ3
C/2019 K7 (Smith),h,06/17.2321/2020,103.4815,308.0322,27.3659,1.000453,4.474840,2000,6.0,4.0
# From MPEC 2021-R75
C/2019 K8 (ATLAS),e,93.0527,290.9918,85.3697,1730,0.0000137,0.99815117,0.0000,07/20.3820/2019,2000,g 11.5,4.0
# From MPEC 2023-A50
C/2019 L1 (PANSTARRS),e,9.9736,254.4269,50.0206,9.820183,0.0320276,0.70416939,66.1860,04/04.0/2025,2000,g 13.5,4.0
# From MPC115886
C/2019 L2 (NEOWISE),e,152.1565,12.5783,18.8536,25.14667,0.0078160,0.93550652,17.1351,04/04.0/2025,2000,g 16.0,4.0
# From MPEC 2024-GJ3
P/2019 LD2 (ATLAS),e,11.6036,178.9109,116.6751,5.174024,0.0837455,0.13025723,158.1124,04/04.0/2025,2000,g  8.5,4.0
# From MPEC 2025-A40
C/2019 L3 (ATLAS),h,01/10.0865/2022,48.3454,290.7206,171.7357,1.003064,3.557915,2000,4.5,4.0
# From MPEC 2024-YC7
P/2019 LM4 (Palomar),e,36.4175,72.8925,68.2047,5.702699,0.0723741,0.58606065,153.0898,04/04.0/2025,2000,g  9.5,4.0
# From MPC118095
C/2019 LB7 (Kleyna),e,164.2807,3.9890,336.7639,35.00990,0.0047579,0.92872282,10.4656,04/04.0/2025,2000,g 17.0,4.0
# From MPC118095
C/2019 M3 (ATLAS),e,99.6384,155.0386,87.9351,4895,0.0000029,0.99950461,0.0000,12/31.3677/2018,2000,g 12.2,4.0
# From MPEC 2023-JA2
C/2019 M4 (TESS),h,09/09.9366/2019,65.6871,52.6443,260.3471,1.000676,9.191086,2000,5.0,4.0
# From MPEC 2023-C45
C/2019 N1 (ATLAS),e,82.5146,13.5215,193.3468,985.9499,0.0000318,0.99827252,0.0000,11/30.5734/2020,2000,g  7.5,4.0
# From MPEC 2023-CD8
A/2019 N2,e,89.3230,276.2214,347.0836,1175,0.0000245,0.99834753,0.0000,08/22.4815/2019,2000,g 12.5,2.0
# From MPEC 2022-A21
C/2019 NJ3 (Lemmon),h,10/22.3910/2020,99.3432,142.4916,246.8765,1.001557,4.362914,2000,9.0,4.0
# From MPEC 2024-R10
